{"fetched_at":"2026-03-30T06:02:59Z","count":15439,"tles":[{"name":"STARLINK-33954","line1":"1 63863U 25093AD  26087.94273661  .00023313  00000+0  85329-3 0  9997","line2":"2 63863  43.0009 329.4112 0001959 272.2880  87.7747 15.27608231 50694","category":"Starlink"}]}